ARABSAT-6A              
1 44186U 19021A   25067.18933560  .00000138  00000+0  00000+0 0  9991
2 44186   0.0484 339.1726 0003067 341.7815 303.7648  1.00268668 21479
BEIDOU-3 IGSO-1         
1 44204U 19023A   25066.33219527 -.00000202  00000+0  00000+0 0  9993
2 44204  58.0346  42.4727 0022278 227.9474 134.0937  1.00275434  2537
BEIDOU-2 G8             
1 44231U 19027A   25066.71400924 -.00000263  00000+0  00000+0 0  9999
2 44231   1.4347  74.5548 0005895 249.1904 243.3853  1.00268337 21409
YAMAL 601               
1 44307U 19031A   25067.17822304  .00000105  00000+0  00000+0 0  9993
2 44307   0.0092 146.9804 0002726 194.4550 297.8257  1.00269649 21233
AT&T T-16               
1 44333U 19034A   25067.09391257 -.00000130  00000+0  00000+0 0  9993
2 44333   0.0191 104.9870 0001137  72.5354 281.4459  1.00273724 20952
EUTELSAT 7C             
1 44334U 19034B   25064.30878093  .00000041  00000+0  00000+0 0  9993
2 44334   0.0680 185.9034 0003384 143.8579 311.6775  1.00270905  2139
BEIDOU-3 IGSO-2         
1 44337U 19035A   25064.85101839 -.00000152  00000+0  00000+0 0  9998
2 44337  55.1994 162.9742 0036515 201.4116 222.6079  1.00257794 20973
COSMOS 2539             
1 44457U 19048A   25064.87127238  .00000073  00000+0  00000+0 0  9999
2 44457   0.0167 117.7458 0000695 217.7077 154.0452  1.00271954 20534
EDRS-C                  
1 44475U 19049A   25064.45928493  .00000147  00000+0  00000+0 0  9998
2 44475   0.0909 254.5449 0000182 189.0216 276.4110  1.00275560 20510
INTELSAT 39 (IS-39)     
1 44476U 19049B   25067.17266814  .00000019  00000+0  00000+0 0  9991
2 44476   0.0244 143.4319 0000625  13.7055 133.0846  1.00270027 20451
AMOS-17                 
1 44479U 19050A   25066.90305256  .00000095  00000+0  00000+0 0  9994
2 44479   0.0385 326.5423 0001787  20.8683 160.5204  1.00272809 20516
AEHF-5 (USA 292)        
1 44481U 19051A   25066.85798083 -.00000246  00000+0  00000+0 0  9995
2 44481   2.1752 312.7236 0059298  13.6560 238.3056  1.00272986 20585
EUTELSAT 5 WEST B       
1 44624U 19067A   25066.89862167 -.00000057  00000+0  00000+0 0  9990
2 44624   0.0913 315.0789 0003089  32.0831 137.1662  1.00272384 19761
MEV-1                   
1 44625U 19067B   25066.89410389 -.00000216  00000+0  00000+0 0  9993
2 44625   0.0449 111.1708 0002499 248.8320 100.2144  1.00271445 19680
TJS-4                   
1 44637U 19070A   25066.91711530 -.00000184  00000+0  00000+0 0  9999
2 44637   0.1022 284.0891 0009730  78.9966 216.4060  1.00271678 19794
BEIDOU-3 IGSO-3         
1 44709U 19073A   25066.00208644 -.00000157  00000+0  00000+0 0  9999
2 44709  55.5992 285.9273 0041687 181.9802 178.0497  1.00276694 19777
TIBA-1                  
1 44800U 19080A   25066.81070764  .00000141  00000+0  00000+0 0  9990
2 44800   0.0558 347.5464 0002345 347.7364 157.8208  1.00269045 19386
INMARSAT GX5            
1 44801U 19080B   25066.90183623  .00000060  00000+0  00000+0 0  9990
2 44801   0.0510  34.3380 0001953 315.9136 151.2186  1.00272171  2111
JCSAT-18 (KACIFIC 1)    
1 44868U 19091A   25066.71513868 -.00000215  00000+0  00000+0 0  9995
2 44868   0.0408 322.7798 0000543 313.8430 296.4662  1.00269568 19334
ELEKTRO-L 3             
1 44903U 19095A   25067.11433907 -.00000111  00000+0  00000+0 0  9994
2 44903   0.0526  85.0686 0001773 240.0321 318.0908  1.00271802 19019
SHIJIAN-20 (SJ-20)      
1 44910U 19097A   25066.84357455 -.00000082  00000+0  00000+0 0  9993
2 44910   3.7207  80.7612 0004960 227.4321 234.2842  1.00271812 19022
TJS-5                   
1 44978U 20002A   25066.94712425 -.00000357  00000+0  00000+0 0  9993
2 44978   0.3807 268.7846 0003510 313.0525  32.5243  1.00270713 19023
GSAT-30                 
1 45026U 20005A   25067.11433907 -.00000179  00000+0  00000+0 0  9998
2 45026   0.0346 258.4294 0000988 184.9458 206.8265  1.00270100 18852
EUTELSAT KONNECT        
1 45027U 20005B   25066.75821102  .00000036  00000+0  00000+0 0  9997
2 45027   0.0636  93.5509 0001177 186.5430 165.7507  1.00272778 19644
JCSAT-17                
1 45245U 20013A   25065.68586442 -.00000322  00000+0  00000+0 0  9993
2 45245   5.4715 352.2994 0004446 343.1832 212.0239  1.00270020 18550
GEO-KOMPSAT-2B          
1 45246U 20013B   25066.62683483 -.00000358  00000+0  00000+0 0  9991
2 45246   0.0469 317.3230 0001998 351.5375 210.6200  1.00270621 18602
BEIDOU-3 G2             
1 45344U 20017A   25067.12979416 -.00000155  00000+0  00000+0 0  9999
2 45344   2.7012  38.1077 0003133 300.8301 313.8924  1.00272077 18594
AEHF-6 (USA 298)        
1 45465U 20022B   25066.71261916 -.00000312  00000+0  00000+0 0  9997
2 45465   3.6044 298.1845 0048795  10.9440 250.7616  1.00267906 18334
BEIDOU-3 G3             
1 45807U 20040A   25066.77871478 -.00000368  00000+0  00000+0 0  9994
2 45807   1.3245  61.1835 0003180 312.2462 183.1862  1.00272416 17399
APSTAR-6D               
1 45863U 20045A   25065.28340728 -.00000328  00000+0  00000+0 0  9991
2 45863   0.0445 100.7689 0002351 345.2862 314.1904  1.00269254 17169
KOREASAT 116            
1 45920U 20048A   25066.77984424 -.00000376  00000+0  00000+0 0  9993
2 45920   0.0237 126.7810 0001088 209.1736 226.7376  1.00269134 16965
EXPRESS 103             
1 45985U 20053A   25067.12058633 -.00000295  00000+0  00000+0 0  9994
2 45985   0.0159 206.4772 0000467  58.4553  41.0265  1.00271190 16964
EXPRESS 80              
1 45986U 20053B   25066.31864394 -.00000148  00000+0  00000+0 0  9991
2 45986   0.0233 225.7889 0000754 341.6750 152.5026  1.00271942 16953
BSAT-4B                 
1 46112U 20056A   25066.94712425 -.00000365  00000+0  00000+0 0  9993
2 46112   0.0253 185.6505 0001089 251.9846 179.0431  1.00270679 16711
MEV-2                   
1 46113U 20056B   25066.89949046 -.00000025  00000+0  00000+0 0  9992
2 46113   0.0242 252.6878 0000985  81.9844 153.9871  1.00271979 17535
GALAXY 30 (G-30)        
1 46114U 20056C   25066.73199348  .00000023  00000+0  00000+0 0  9995
2 46114   0.0236 141.9318 0001830 211.8188 310.4557  1.00271750 16619
GAOFEN-13 01            
1 46610U 20071A   25066.70879641 -.00000377  00000+0  00000+0 0  9994
2 46610   0.3427  84.5375 0017628 124.3244 329.9527  1.00272009 16242
TIANTONG-1 2            
1 46916U 20082A   25066.92442513 -.00000370  00000+0  00000+0 0  9996
2 46916   1.7192 296.7651 0003155  39.5384 287.2940  1.00273547 15973
LUCAS (JDRS-1)          
1 47202U 20089A   25066.85889265 -.00000250  00000+0  00000+0 0  9990
2 47202   0.0370  93.9848 0002840 241.2167 230.5560  1.00272213 15741
SXM-7                   
1 47240U 20096A   25066.13864406 -.00000217  00000+0  00000+0 0  9994
2 47240   0.0195 123.7174 0004346  13.2264 352.8371  1.00270439 15656
CMS-01                  
1 47256U 20099A   25067.11433907 -.00000180  00000+0  00000+0 0  9990
2 47256   0.0158 155.8843 0007266 130.4796   3.8461  1.00272027 15510
TURKSAT 5A              
1 47306U 21001A   25064.04003152  .00000148  00000+0  00000+0 0  9997
2 47306   0.0264 100.2455 0000133 196.9587 271.1175  1.00271160 15269
TIANTONG-1 3            
1 47321U 21003A   25067.11433907 -.00000167  00000+0  00000+0 0  9994
2 47321   2.3771 318.1730 0004960   5.2843 325.2110  1.00271353 15296
TJS-6                   
1 47613U 21010A   25066.86352201  .00000029  00000+0  00000+0 0  9990
2 47613   0.2326  93.3809 0001516 182.0247  19.7339  1.00273725 15134
SBIRS GEO-5 (USA 315)   
1 48618U 21042A   25066.79915758  .00000107  00000+0  00000+0 0  9992
2 48618   5.7446 326.4105 0002461   8.0564 139.8440  1.00272552 14088
FENGYUN 4B              
1 48808U 21047A   25066.84896437 -.00000344  00000+0  00000+0 0  9990
2 48808   0.2033  84.4893 0012223   5.3712 126.1189  1.00270704 13892
SXM-8                   
1 48838U 21049A   25061.31144855 -.00000208  00000+0  00000+0 0  9991
2 48838   0.0176  68.7571 0003199 342.3851 136.1276  1.00276740 13860
TIANLIAN 1-05           
1 49011U 21063A   25066.90296567  .00000093  00000+0  00000+0 0  9990
2 49011   0.3915  79.7623 0003956 229.0131 198.8971  1.00271607 13405
STAR ONE D2             
1 49055U 21069A   25064.24072469 -.00000271  00000+0  00000+0 0  9991
2 49055   0.0210 119.7574 0000855 216.1116 204.0058  1.00270067 13239
EUTELSAT QUANTUM        
1 49056U 21069B   25066.90913418  .00000111  00000+0  00000+0 0  9997
2 49056   0.0543 292.7642 0002422  40.6697 207.3834  1.00272293 13256
ZHONGXING-2E            
1 49062U 21071A   25066.84766117 -.00000306  00000+0  00000+0 0  9999
2 49062   0.0160 108.8915 0000263 296.4335 163.6752  1.00270433 13368
TJS-7                   
1 49115U 21077A   25066.87994240 -.00000137  00000+0  00000+0 0  9999
2 49115   0.1563  90.8338 0001057 173.5961 118.6625  1.00270307  4882
CHINASAT 9B             
1 49125U 21080A   25066.85552049 -.00000327  00000+0  00000+0 0  9990
2 49125   0.0158 206.5163 0002369 109.1414 259.5338  1.00270721 12974
SHIJIAN-21 (SJ-21)      
1 49330U 21094A   25066.94114404 -.00000265  00000+0  00000+0 0  9993
2 49330  10.3088  43.2806 0077118  37.9827 208.8567  1.00247142 12587
SES-17                  
1 49332U 21095A   25066.12753145 -.00000284  00000+0  00000+0 0  9998
2 49332   0.0155 101.3681 0000855 231.1093 171.3998  1.00269991 13156
SYRACUSE 4A             
1 49333U 21095B   25066.90869978  .00000121  00000+0  00000+0 0  9996
2 49333   0.0242 141.8363 0001545 199.4029 197.2623  1.00269603 13288
QZS-1R (MICHIBIKI-1R)   
1 49336U 21096A   25066.92485954 -.00000264  00000+0  00000+0 0  9999
2 49336  36.4911  86.5323 0749405 269.6038 278.1932  1.00288025 12327
ZHONGXING-1D            
1 49505U 21114A   25066.99679646 -.00000351  00000+0  00000+0 0  9995
2 49505   0.0426 310.2098 0002635 261.8419  82.8587  1.00273341 12144
STPSAT-6                
1 49817U 21118A   25066.66318422 -.00000059  00000+0  00000+0 0  9996
2 49817   0.0129 118.7747 0002470 202.8294 331.0771  1.00269267 11881
LDPE-1                  
1 49818U 21118B   25067.07255147 -.00000201  00000+0  00000+0 0  9996
2 49818   2.5169  84.7315 0002071 335.4817  23.8411  1.01213862 11953
